{
  "norad_id": 58167,
  "name": "STARLINK-30811",
  "history": [
    {
      "epoch": "2026-03-28T20:03:30.447648Z",
      "apogee_km": 476.0420191163321,
      "perigee_km": 474.44353681691973,
      "latitude_deg": -1.3345543174820045e-05,
      "longitude_deg": 3.3431173703647588,
      "height_km": 476.1845521239774,
      "semi_major_axis_km": 6853.379777966626,
      "eccentricity": 0.00011662,
      "inclination_deg": 53.16,
      "raan_deg": 130.4705,
      "arg_perigee_deg": 93.1241,
      "mean_anomaly_deg": 266.9893,
      "mean_motion_rev_day": 15.3019072
    },
    {
      "epoch": "2026-03-29T02:19:43.073184Z",
      "apogee_km": 476.00766452225616,
      "perigee_km": 474.46291440821096,
      "latitude_deg": 1.3960988068548175e-05,
      "longitude_deg": -92.18157558597431,
      "height_km": 476.23223194804604,
      "semi_major_axis_km": 6853.372289465233,
      "eccentricity": 0.0001127,
      "inclination_deg": 53.1598,
      "raan_deg": 129.2559,
      "arg_perigee_deg": 97.3409,
      "mean_anomaly_deg": 262.772,
      "mean_motion_rev_day": 15.30193228
    }
  ]
}